From: horizons@ssd.jpl.nasa.gov (Horizons Ephemeris System)
Subject: [Horizons] SMALL BODY #C(500@10)_T(Elenin (P/2011 NO1)) (1/1)
Date: March 1, 2021 at 1:23:18 PM PST

Automated mail xmit by MAIL_REQUEST, PID= 2301 Mon Mar  1 13:23:18 2021
++++++++++++++++++++++++++++++++ (part 1 of 1)  +++++++++++++++++++++++++++++++
*******************************************************************************
JPL/HORIZONS                 Elenin (P/2011 NO1)           2021-Mar-01 13:23:17
Rec #:90004001 (+COV) Soln.date: 2021-Jan-30_21:12:54       # obs: 60 (51 days)

IAU76/J2000 helio. ecliptic osc. elements (au, days, deg., period=Julian yrs):

 EPOCH=  2455757.5 ! 2011-Jul-15.0000000 (TDB)    RMSW= n.a.
  EC= .7789841886304916   QR= 1.240969026784356   TP= 2455581.6980798645
  OM= 296.1139032745317   W= 263.4465229152277    IN= 15.38420147945069
  A= 5.614842753080794    MA= 13.02330737744471   ADIST= 9.988716479377231
  PER= 13.304991808298    N= .074079436           ANGMOM= .025559241
  DAN= 2.42309            DDN= 2.02742            L= 199.3191264
  B= -15.2812156          MOID= .38067099         TP= 2011-Jan-20.1980798645

Comet physical (GM= km^3/s^2; RAD= km):
  GM= n.a.                RAD= n.a.
  M1=  17.1     M2=  n.a.     k1=  4.5    k2= n.a.     PHCOF= n.a.

COMET comments 
1: soln ref.= JPL#9, data arc: 2011-06-12 to 2011-08-02
2: k1=4.5;
*******************************************************************************


*******************************************************************************
Ephemeris / MAIL_REQUEST Mon Mar  1 13:23:17 2021 Pasadena, USA  / Horizons
*******************************************************************************
Target body name: Elenin (P/2011 NO1)             {source: JPL#9}
Center body name: Sun (10)                        {source: DE431}
Center-site name: BODY CENTER
*******************************************************************************
Start time      : A.D. 1990-Jan-01 00:00:00.0000 TDB
Stop  time      : A.D. 2020-Dec-31 00:00:00.0000 TDB
Step-size       : 10080 minutes
*******************************************************************************
Center geodetic : 0.00000000,0.00000000,0.0000000 {E-lon(deg),Lat(deg),Alt(km)}
Center cylindric: 0.00000000,0.00000000,0.0000000 {E-lon(deg),Dxy(km),Dz(km)}
Center radii    : 696000.0 x 696000.0 x 696000.0 k{Equator, meridian, pole}    
Small perturbers: Yes                             {source: SB431-N16}
Output units    : AU-D
Output type     : GEOMETRIC cartesian states
Output format   : 6 (LT, range, and range-rate)
Reference frame : Ecliptic of J2000.0
*******************************************************************************
Initial IAU76/J2000 heliocentric ecliptic osculating elements (au, days, deg.):
 EPOCH=  2455757.5 ! 2011-Jul-15.0000000 (TDB)    RMSW= n.a.                  
  EC= .7789841886304916   QR= 1.240969026784356   TP= 2455581.6980798645      
  OM= 296.1139032745317   W= 263.4465229152277    IN= 15.38420147945069       
 Equivalent ICRF heliocentric equatorial cartesian coordinates (au, au/d):
  X= 1.137508913192728E+00  Y=-2.019521408898441E+00  Z=-8.589404746603209E-01
 VX= 1.295449691095784E-02 VY=-4.166271438173118E-03 VZ= 1.242808696650846E-03
Comet physical (GM= km^3/s^2; RAD= km):                                        
  GM= n.a.                RAD= n.a.                                           
  M1=  17.1     M2=  n.a.     k1=  4.5    k2= n.a.     PHCOF= n.a.            
*******************************************************************************
           JDTDB,            Calendar Date (TDB),                     LT,                     RG,                     RR,
**************************************************************************************************************************
$$SOE
2458742.500000000, A.D. 2019-Sep-16 00:00:00.0000,  5.394077479981548E-02,  9.339555638877972E+00, -1.763716059103631E-03,
2458749.500000000, A.D. 2019-Sep-23 00:00:00.0000,  5.386910366095090E-02,  9.327146165865919E+00, -1.781854557528109E-03,
2458756.500000000, A.D. 2019-Sep-30 00:00:00.0000,  5.379669836466148E-02,  9.314609577436221E+00, -1.800034898331864E-03,
2458763.500000000, A.D. 2019-Oct-07 00:00:00.0000,  5.372355720151808E-02,  9.301945577610388E+00, -1.818257958960791E-03,
2458770.500000000, A.D. 2019-Oct-14 00:00:00.0000,  5.364967842664760E-02,  9.289153864273015E+00, -1.836524622978813E-03,
2458777.500000000, A.D. 2019-Oct-21 00:00:00.0000,  5.357506025865962E-02,  9.276234128985910E+00, -1.854835819623785E-03,
2458784.500000000, A.D. 2019-Oct-28 00:00:00.0000,  5.349970087702136E-02,  9.263186056533598E+00, -1.873192561542567E-03,
2458791.500000000, A.D. 2019-Nov-04 00:00:00.0000,  5.342359841861913E-02,  9.250009324327936E+00, -1.891595923200717E-03,
2458798.500000000, A.D. 2019-Nov-11 00:00:00.0000,  5.334675098123570E-02,  9.236703603010227E+00, -1.910046633333241E-03,
2458805.500000000, A.D. 2019-Nov-18 00:00:00.0000,  5.326915665780963E-02,  9.223268562383016E+00, -1.928544049816578E-03,
2458812.500000000, A.D. 2019-Nov-25 00:00:00.0000,  5.319081358939224E-02,  9.209703880579308E+00, -1.947086875914445E-03,
2458819.500000000, A.D. 2019-Dec-02 00:00:00.0000,  5.311171993401870E-02,  9.196009238672799E+00, -1.965675779976367E-03,
2458826.500000000, A.D. 2019-Dec-09 00:00:00.0000,  5.303187379469757E-02,  9.182184308209584E+00, -1.984312422824873E-03,
2458833.500000000, A.D. 2019-Dec-16 00:00:00.0000,  5.295127321649067E-02,  9.168228750702619E+00, -2.002997928612556E-03,
2458840.500000000, A.D. 2019-Dec-23 00:00:00.0000,  5.286991620993180E-02,  9.154142221686509E+00, -2.021732938237872E-03,
2458847.500000000, A.D. 2019-Dec-30 00:00:00.0000,  5.278780076429258E-02,  9.139924373014424E+00, -2.040517897661299E-03,
2458854.500000000, A.D. 2020-Jan-06 00:00:00.0000,  5.270492485214794E-02,  9.125574853648596E+00, -2.059353202412435E-03,
2458861.500000000, A.D. 2020-Jan-13 00:00:00.0000,  5.262128642983691E-02,  9.111093309740101E+00, -2.078239270095287E-03,
2458868.500000000, A.D. 2020-Jan-20 00:00:00.0000,  5.253688343536878E-02,  9.096479384266310E+00, -2.097176600119321E-03,
2458875.500000000, A.D. 2020-Jan-27 00:00:00.0000,  5.245171378395777E-02,  9.081732716257758E+00, -2.116165825414525E-03,
2458882.500000000, A.D. 2020-Feb-03 00:00:00.0000,  5.236577536353570E-02,  9.066852940021173E+00, -2.135207613261128E-03,
2458889.500000000, A.D. 2020-Feb-10 00:00:00.0000,  5.227906604487551E-02,  9.051839686892320E+00, -2.154301955741514E-03,
2458896.500000000, A.D. 2020-Feb-17 00:00:00.0000,  5.219158372893584E-02,  9.036692593433454E+00, -2.173447410936227E-03,
2458903.500000000, A.D. 2020-Feb-24 00:00:00.0000,  5.210332637267011E-02,  9.021411305902024E+00, -2.192643204232273E-03,
2458910.500000000, A.D. 2020-Mar-02 00:00:00.0000,  5.201429191793136E-02,  9.005995467940934E+00, -2.211890694444325E-03,
2458917.500000000, A.D. 2020-Mar-09 00:00:00.0000,  5.192447824040196E-02,  8.990444711735984E+00, -2.231191498505005E-03,
2458924.500000000, A.D. 2020-Mar-16 00:00:00.0000,  5.183388316053861E-02,  8.974758659910950E+00, -2.250546746291895E-03,
2458931.500000000, A.D. 2020-Mar-23 00:00:00.0000,  5.174250445864392E-02,  8.958936928137147E+00, -2.269957344741396E-03,
2458938.500000000, A.D. 2020-Mar-30 00:00:00.0000,  5.165033987891919E-02,  8.942979125835130E+00, -2.289424196065788E-03,
2458945.500000000, A.D. 2020-Apr-06 00:00:00.0000,  5.155738712749322E-02,  8.926884855833423E+00, -2.308948291463246E-03,
2458952.500000000, A.D. 2020-Apr-13 00:00:00.0000,  5.146364386778203E-02,  8.910653713565045E+00, -2.328530759898492E-03,
2458959.500000000, A.D. 2020-Apr-20 00:00:00.0000,  5.136910771404178E-02,  8.894285285951250E+00, -2.348172911200956E-03,
2458966.500000000, A.D. 2020-Apr-27 00:00:00.0000,  5.127377622362826E-02,  8.877779150061315E+00, -2.367876239421387E-03,
2458973.500000000, A.D. 2020-May-04 00:00:00.0000,  5.117764689389565E-02,  8.861134872575542E+00, -2.387642109292208E-03,
2458980.500000000, A.D. 2020-May-11 00:00:00.0000,  5.108071718646903E-02,  8.844352013987937E+00, -2.407470727094472E-03,
2458987.500000000, A.D. 2020-May-18 00:00:00.0000,  5.098298458169419E-02,  8.827430138033900E+00, -2.427361297775330E-03,
2458994.500000000, A.D. 2020-May-25 00:00:00.0000,  5.088444656421562E-02,  8.810368809193125E+00, -2.447314757095236E-03,
2459001.500000000, A.D. 2020-Jun-01 00:00:00.0000,  5.078510054511511E-02,  8.793167579208319E+00, -2.467333434498804E-03,
2459008.500000000, A.D. 2020-Jun-08 00:00:00.0000,  5.068494384597894E-02,  8.775825984326520E+00, -2.487419287393594E-03,
2459015.500000000, A.D. 2020-Jun-15 00:00:00.0000,  5.058397372058644E-02,  8.758343549054366E+00, -2.507573760445064E-03,
2459022.500000000, A.D. 2020-Jun-22 00:00:00.0000,  5.048218736983237E-02,  8.740719788741803E+00, -2.527798061665741E-03,
2459029.500000000, A.D. 2020-Jun-29 00:00:00.0000,  5.037958194784871E-02,  8.722954210642053E+00, -2.548093311853976E-03,
2459036.500000000, A.D. 2020-Jul-06 00:00:00.0000,  5.027615456401947E-02,  8.705046314260482E+00, -2.568460612489679E-03,
2459043.500000000, A.D. 2020-Jul-13 00:00:00.0000,  5.017190228273741E-02,  8.686995591312451E+00, -2.588901096675283E-03,
2459050.500000000, A.D. 2020-Jul-20 00:00:00.0000,  5.006682212105042E-02,  8.668801525315805E+00, -2.609415979953125E-03,
2459057.500000000, A.D. 2020-Jul-27 00:00:00.0000,  4.996091104559883E-02,  8.650463591060607E+00, -2.630006505677147E-03,
2459064.500000000, A.D. 2020-Aug-03 00:00:00.0000,  4.985416598075318E-02,  8.631981256018118E+00, -2.650673345663285E-03,
2459071.500000000, A.D. 2020-Aug-10 00:00:00.0000,  4.974658385406385E-02,  8.613353988210180E+00, -2.671415611295240E-03,
2459078.500000000, A.D. 2020-Aug-17 00:00:00.0000,  4.963816163957863E-02,  8.594581263709410E+00, -2.692232439396481E-03,
2459085.500000000, A.D. 2020-Aug-24 00:00:00.0000,  4.952889630332641E-02,  8.575662557199990E+00, -2.713125070628594E-03,
